[{"OBJECT_NAME":"2026-027A","OBJECT_ID":"2026-027A","EPOCH":"2026-03-13T14:14:17.702016","MEAN_MOTION":15.17791494,"ECCENTRICITY":0.00104524,"INCLINATION":97.4901,"RA_OF_ASC_NODE":201.5655,"ARG_OF_PERICENTER":180.9414,"MEAN_ANOMALY":179.1802,"EPHEMERIS_TYPE":0,"CLASSIFICATION_TYPE":"U","NORAD_CAT_ID":67746,"ELEMENT_SET_NO":999,"REV_AT_EPOCH":445,"BSTAR":0.00050079064,"MEAN_MOTION_DOT":0.00010074,"MEAN_MOTION_DDOT":0},{"OBJECT_NAME":"2026-027B","OBJECT_ID":"2026-027B","EPOCH":"2026-03-13T14:11:29.585760","MEAN_MOTION":15.17891135,"ECCENTRICITY":0.00105786,"INCLINATION":97.4896,"RA_OF_ASC_NODE":201.566,"ARG_OF_PERICENTER":183.3088,"MEAN_ANOMALY":176.8078,"EPHEMERIS_TYPE":0,"CLASSIFICATION_TYPE":"U","NORAD_CAT_ID":67747,"ELEMENT_SET_NO":999,"REV_AT_EPOCH":445,"BSTAR":0.00049565306,"MEAN_MOTION_DOT":9.998e-5,"MEAN_MOTION_DDOT":0},{"OBJECT_NAME":"2026-027C","OBJECT_ID":"2026-027C","EPOCH":"2026-03-13T14:09:28.412352","MEAN_MOTION":15.17872574,"ECCENTRICITY":0.00109483,"INCLINATION":97.4909,"RA_OF_ASC_NODE":201.5723,"ARG_OF_PERICENTER":185.3382,"MEAN_ANOMALY":174.7737,"EPHEMERIS_TYPE":0,"CLASSIFICATION_TYPE":"U","NORAD_CAT_ID":67748,"ELEMENT_SET_NO":999,"REV_AT_EPOCH":445,"BSTAR":0.0003514071,"MEAN_MOTION_DOT":7.063e-5,"MEAN_MOTION_DDOT":0},{"OBJECT_NAME":"2026-027D","OBJECT_ID":"2026-027D","EPOCH":"2026-03-13T15:37:24.227904","MEAN_MOTION":15.18263221,"ECCENTRICITY":0.00105257,"INCLINATION":97.4902,"RA_OF_ASC_NODE":201.6423,"ARG_OF_PERICENTER":190.6499,"MEAN_ANOMALY":169.4513,"EPHEMERIS_TYPE":0,"CLASSIFICATION_TYPE":"U","NORAD_CAT_ID":67749,"ELEMENT_SET_NO":999,"REV_AT_EPOCH":441,"BSTAR":0.00060912327,"MEAN_MOTION_DOT":0.00012439,"MEAN_MOTION_DDOT":0},{"OBJECT_NAME":"2026-027E","OBJECT_ID":"2026-027E","EPOCH":"2026-03-13T14:03:00.325152","MEAN_MOTION":15.18200614,"ECCENTRICITY":0.00098012,"INCLINATION":97.4914,"RA_OF_ASC_NODE":201.5808,"ARG_OF_PERICENTER":191.4042,"MEAN_ANOMALY":168.6972,"EPHEMERIS_TYPE":0,"CLASSIFICATION_TYPE":"U","NORAD_CAT_ID":67750,"ELEMENT_SET_NO":999,"REV_AT_EPOCH":445,"BSTAR":0.00052177857,"MEAN_MOTION_DOT":0.00010622,"MEAN_MOTION_DDOT":0},{"OBJECT_NAME":"2026-027F","OBJECT_ID":"2026-027F","EPOCH":"2026-03-12T19:00:38.279808","MEAN_MOTION":15.17898571,"ECCENTRICITY":0.00092398,"INCLINATION":97.4916,"RA_OF_ASC_NODE":200.8018,"ARG_OF_PERICENTER":190.5872,"MEAN_ANOMALY":169.5169,"EPHEMERIS_TYPE":0,"CLASSIFICATION_TYPE":"U","NORAD_CAT_ID":67751,"ELEMENT_SET_NO":999,"REV_AT_EPOCH":433,"BSTAR":0.00019459815,"MEAN_MOTION_DOT":3.881e-5,"MEAN_MOTION_DDOT":0},{"OBJECT_NAME":"2026-027G","OBJECT_ID":"2026-027G","EPOCH":"2026-03-13T14:49:42.219264","MEAN_MOTION":15.12212727,"ECCENTRICITY":0.00121665,"INCLINATION":97.4912,"RA_OF_ASC_NODE":201.5362,"ARG_OF_PERICENTER":213.163,"MEAN_ANOMALY":146.8839,"EPHEMERIS_TYPE":0,"CLASSIFICATION_TYPE":"U","NORAD_CAT_ID":67752,"ELEMENT_SET_NO":999,"REV_AT_EPOCH":445,"BSTAR":0.00050844625,"MEAN_MOTION_DOT":8.736e-5,"MEAN_MOTION_DDOT":0},{"OBJECT_NAME":"JIELONG-3 R/B","OBJECT_ID":"2026-027H","EPOCH":"2026-03-13T13:35:50.123904","MEAN_MOTION":15.80863154,"ECCENTRICITY":0.01976659,"INCLINATION":97.5101,"RA_OF_ASC_NODE":203.9341,"ARG_OF_PERICENTER":230.7888,"MEAN_ANOMALY":127.5687,"EPHEMERIS_TYPE":0,"CLASSIFICATION_TYPE":"U","NORAD_CAT_ID":67753,"ELEMENT_SET_NO":999,"REV_AT_EPOCH":459,"BSTAR":0.00079559082,"MEAN_MOTION_DOT":0.00691553,"MEAN_MOTION_DDOT":2.354327e-6},{"OBJECT_NAME":"2025-313BF","OBJECT_ID":"2025-313BF","EPOCH":"2026-03-13T03:49:44.167872","MEAN_MOTION":15.305841,"ECCENTRICITY":0.00075237,"INCLINATION":97.3987,"RA_OF_ASC_NODE":148.8127,"ARG_OF_PERICENTER":320.9316,"MEAN_ANOMALY":39.1381,"EPHEMERIS_TYPE":0,"CLASSIFICATION_TYPE":"U","NORAD_CAT_ID":67755,"ELEMENT_SET_NO":999,"REV_AT_EPOCH":705,"BSTAR":0.00042800467,"MEAN_MOTION_DOT":0.00012596,"MEAN_MOTION_DDOT":0},{"OBJECT_NAME":"2026-028A","OBJECT_ID":"2026-028A","EPOCH":"2026-03-13T07:27:10.865088","MEAN_MOTION":1.0020911,"ECCENTRICITY":0.00035414,"INCLINATION":0.4621,"RA_OF_ASC_NODE":290.7134,"ARG_OF_PERICENTER":42.9927,"MEAN_ANOMALY":26.2565,"EPHEMERIS_TYPE":0,"CLASSIFICATION_TYPE":"U","NORAD_CAT_ID":67756,"ELEMENT_SET_NO":999,"REV_AT_EPOCH":29,"BSTAR":0,"MEAN_MOTION_DOT":-9.5e-7,"MEAN_MOTION_DDOT":0},{"OBJECT_NAME":"JAM-E JAM 1","OBJECT_ID":"2026-028B","EPOCH":"2026-03-12T19:01:04.274112","MEAN_MOTION":1.00231393,"ECCENTRICITY":0.00057502,"INCLINATION":0.4861,"RA_OF_ASC_NODE":286.1715,"ARG_OF_PERICENTER":134.5705,"MEAN_ANOMALY":68.8815,"EPHEMERIS_TYPE":0,"CLASSIFICATION_TYPE":"U","NORAD_CAT_ID":67757,"ELEMENT_SET_NO":999,"REV_AT_EPOCH":15,"BSTAR":0,"MEAN_MOTION_DOT":1.55e-6,"MEAN_MOTION_DDOT":0},{"OBJECT_NAME":"KUIPER-00159","OBJECT_ID":"2026-030A","EPOCH":"2026-03-13T08:11:11.141952","MEAN_MOTION":15.35976559,"ECCENTRICITY":0.00055598,"INCLINATION":51.8854,"RA_OF_ASC_NODE":201.5551,"ARG_OF_PERICENTER":51.9391,"MEAN_ANOMALY":308.2096,"EPHEMERIS_TYPE":0,"CLASSIFICATION_TYPE":"U","NORAD_CAT_ID":67764,"ELEMENT_SET_NO":999,"REV_AT_EPOCH":565,"BSTAR":0.0013656011,"MEAN_MOTION_DOT":0.00048516,"MEAN_MOTION_DDOT":0},{"OBJECT_NAME":"KUIPER-00160","OBJECT_ID":"2026-030B","EPOCH":"2026-03-12T15:03:27.631296","MEAN_MOTION":15.35770396,"ECCENTRICITY":0.000553,"INCLINATION":51.882,"RA_OF_ASC_NODE":205.0098,"ARG_OF_PERICENTER":62.3887,"MEAN_ANOMALY":297.766,"EPHEMERIS_TYPE":0,"CLASSIFICATION_TYPE":"U","NORAD_CAT_ID":67765,"ELEMENT_SET_NO":999,"REV_AT_EPOCH":554,"BSTAR":0.0010199,"MEAN_MOTION_DOT":0.00035835,"MEAN_MOTION_DDOT":0},{"OBJECT_NAME":"KUIPER-00177","OBJECT_ID":"2026-030C","EPOCH":"2026-03-13T14:00:01.000224","MEAN_MOTION":15.29244381,"ECCENTRICITY":0.00024196,"INCLINATION":51.8844,"RA_OF_ASC_NODE":200.3205,"ARG_OF_PERICENTER":12.669,"MEAN_ANOMALY":262.2947,"EPHEMERIS_TYPE":0,"CLASSIFICATION_TYPE":"U","NORAD_CAT_ID":67766,"ELEMENT_SET_NO":999,"REV_AT_EPOCH":558,"BSTAR":-0.076994078,"MEAN_MOTION_DOT":-0.02004506,"MEAN_MOTION_DDOT":0},{"OBJECT_NAME":"KUIPER-00178","OBJECT_ID":"2026-030D","EPOCH":"2026-03-13T14:00:01.000224","MEAN_MOTION":15.31691366,"ECCENTRICITY":0.00074694,"INCLINATION":51.8843,"RA_OF_ASC_NODE":200.4736,"ARG_OF_PERICENTER":55.4155,"MEAN_ANOMALY":165.5813,"EPHEMERIS_TYPE":0,"CLASSIFICATION_TYPE":"U","NORAD_CAT_ID":67767,"ELEMENT_SET_NO":999,"REV_AT_EPOCH":496,"BSTAR":0.00025897469,"MEAN_MOTION_DOT":7.686e-5,"MEAN_MOTION_DDOT":0},{"OBJECT_NAME":"KUIPER-00180","OBJECT_ID":"2026-030E","EPOCH":"2026-03-13T14:00:01.000224","MEAN_MOTION":15.30102982,"ECCENTRICITY":0.0015259,"INCLINATION":51.8804,"RA_OF_ASC_NODE":201.0247,"ARG_OF_PERICENTER":80.1919,"MEAN_ANOMALY":220.3854,"EPHEMERIS_TYPE":0,"CLASSIFICATION_TYPE":"U","NORAD_CAT_ID":67768,"ELEMENT_SET_NO":999,"REV_AT_EPOCH":240,"BSTAR":8.4291398e-5,"MEAN_MOTION_DOT":2.131e-5,"MEAN_MOTION_DDOT":0},{"OBJECT_NAME":"KUIPER-00197","OBJECT_ID":"2026-030F","EPOCH":"2026-03-12T14:43:39.233856","MEAN_MOTION":15.36533933,"ECCENTRICITY":0.00017784,"INCLINATION":51.8826,"RA_OF_ASC_NODE":204.9278,"ARG_OF_PERICENTER":60.0576,"MEAN_ANOMALY":300.0587,"EPHEMERIS_TYPE":0,"CLASSIFICATION_TYPE":"U","NORAD_CAT_ID":67769,"ELEMENT_SET_NO":999,"REV_AT_EPOCH":554,"BSTAR":0.00062765359,"MEAN_MOTION_DOT":0.00022408,"MEAN_MOTION_DDOT":0}]
