2026-027A               
1 67746U 26027A   26072.59326044  .00010074  00000+0  50079-3 0  9992
2 67746  97.4901 201.5655 0010452 180.9414 179.1802 15.17791494  4454
2026-027B               
1 67747U 26027B   26072.59131465  .00009998  00000+0  49565-3 0  9995
2 67747  97.4896 201.5660 0010578 183.3088 176.8078 15.17891135  4459
2026-027C               
1 67748U 26027C   26072.58991218  .00007063  00000+0  35141-3 0  9991
2 67748  97.4909 201.5723 0010948 185.3382 174.7737 15.17872574  4450
2026-027D               
1 67749U 26027D   26072.65097486  .00012439  00000+0  60912-3 0  9991
2 67749  97.4902 201.6423 0010525 190.6499 169.4513 15.18263221  4414
2026-027E               
1 67750U 26027E   26072.58542043  .00010622  00000+0  52178-3 0  9996
2 67750  97.4914 201.5808 0009801 191.4042 168.6972 15.18200614  4454
2026-027F               
1 67751U 26027F   26071.79210972  .00003881  00000+0  19460-3 0  9998
2 67751  97.4916 200.8018 0009239 190.5872 169.5169 15.17898571  4337
2026-027G               
1 67752U 26027G   26072.61784976  .00008736  00000+0  50845-3 0  9997
2 67752  97.4912 201.5362 0012166 213.1630 146.8839 15.12212727  4454
JIELONG-3 R/B           
1 67753U 26027H   26072.56655236  .00691553  23543-5  79559-3 0  9999
2 67753  97.5101 203.9341 0197665 230.7888 127.5687 15.80863154  4590
2025-313BF              
1 67755U 25313BF  26072.15953898  .00012596  00000+0  42800-3 0  9998
2 67755  97.3987 148.8127 0007523 320.9316  39.1381 15.30584100  7051
2026-028A               
1 67756U 26028A   26072.31054242 -.00000095  00000+0  00000+0 0  9990
2 67756   0.4621 290.7134 0003541  42.9927  26.2565  1.00209110   299
JAM-E JAM 1             
1 67757U 26028B   26071.79241058  .00000155  00000+0  00000+0 0  9991
2 67757   0.4861 286.1715 0005750 134.5705  68.8815  1.00231393   159
KUIPER-00159            
1 67764U 26030A   26072.34110118  .00048516  00000+0  13656-2 0  9993
2 67764  51.8854 201.5551 0005559  51.9391 308.2096 15.35976559  5653
KUIPER-00160            
1 67765U 26030B   26071.62740314  .00035835  00000+0  10199-2 0  9990
2 67765  51.8820 205.0098 0005530  62.3887 297.7660 15.35770396  5545
KUIPER-00177            
1 67766U 26030C   26072.58334491 -.02004506  00000+0 -76994-1 0  9991
2 67766  51.8844 200.3205 0002419  12.6690 262.2947 15.29244381  5585
KUIPER-00178            
1 67767U 26030D   26072.58334491  .00007686  00000+0  25897-3 0  9998
2 67767  51.8843 200.4736 0007469  55.4155 165.5813 15.31691366  4966
KUIPER-00180            
1 67768U 26030E   26072.58334491  .00002131  00000+0  84291-4 0  9993
2 67768  51.8804 201.0247 0015259  80.1919 220.3854 15.30102982  2409
KUIPER-00197            
1 67769U 26030F   26071.61364854  .00022408  00000+0  62765-3 0  9993
2 67769  51.8826 204.9278 0001778  60.0576 300.0587 15.36533933  5544
